{"type": "FeatureCollection", "features": [ {"type": "Feature", "properties": {"norad_id": 34911, "name": "COSMOS 2251 DEB", "group": "cosmos-2251-debris", "lat": 67.84305752320051, "lon": -7.401522916428732, "alt_km": 723.2609686008118, "timestamp": "2025-12-27T03:58:44.542269+00:00", "meta": {"OBJECT_NAME": "COSMOS 2251 DEB", "OBJECT_ID": "1993-036ADG", "EPOCH": "2025-12-26T01:52:35.742144", "MEAN_MOTION": 14.59390445, "ECCENTRICITY": 0.00842059, "INCLINATION": 74.0393, "RA_OF_ASC_NODE": 219.323, "ARG_OF_PERICENTER": 341.4186, "MEAN_ANOMALY": 171.635, "EPHEMERIS_TYPE": 0, "CLASSIFICATION_TYPE": "U", "NORAD_CAT_ID": 34911, "ELEMENT_SET_NO": 999, "REV_AT_EPOCH": 88781, "BSTAR": 0.00010844477, "MEAN_MOTION_DOT": 5.07e-06, "MEAN_MOTION_DDOT": 0}, "tle": {"line1": "1 34911U 93036ADG 25360.07819146  .00000507  00000+0  10844-3 0  9992", "line2": "2 34911  74.0393 219.3230 0084205 341.4186 171.6350 14.59390445887811"}}, "geometry": {"type": "Point", "coordinates": [-7.401522916428732, 67.84305752320051]}}, {"type": "Feature", "properties": {"norad_id": 34913, "name": "COSMOS 2251 DEB", "group": "cosmos-2251-debris", "lat": -72.86829900586227, "lon": 144.3617304418848, "alt_km": 785.3768091974262, "timestamp": "2025-12-27T03:58:44.542278+00:00", "meta": {"OBJECT_NAME": "COSMOS 2251 DEB", "OBJECT_ID": "1993-036ADJ", "EPOCH": "2025-12-25T11:24:46.560096", "MEAN_MOTION": 14.34641195, "ECCENTRICITY": 0.0020873, "INCLINATION": 74.0281, "RA_OF_ASC_NODE": 259.159, "ARG_OF_PERICENTER": 5.6867, "MEAN_ANOMALY": 172.1148, "EPHEMERIS_TYPE": 0, "CLASSIFICATION_TYPE": "U", "NORAD_CAT_ID": 34913, "ELEMENT_SET_NO": 999, "REV_AT_EPOCH": 65370, "BSTAR": 4.8442e-05, "MEAN_MOTION_DOT": 1.11e-06, "MEAN_MOTION_DDOT": 0}, "tle": {"line1": "1 34913U 93036ADJ 25359.47553889  .00000111  00000+0  48442-4 0  9992", "line2": "2 34913  74.0281 259.1590 0020873   5.6867 172.1148 14.34641195653700"}}, "geometry": {"type": "Point", "coordinates": [144.3617304418848, -72.86829900586227]}}, {"type": "Feature", "properties": {"norad_id": 34918, "name": "COSMOS 2251 DEB", "group": "cosmos-2251-debris", "lat": -5.085104997096304, "lon": -75.35485483604, "alt_km": 697.323244817283, "timestamp": "2025-12-27T03:58:44.542287+00:00", "meta": {"OBJECT_NAME": "COSMOS 2251 DEB", "OBJECT_ID": "1993-036ADP", "EPOCH": "2025-12-25T13:22:56.208000", "MEAN_MOTION": 14.61407505, "ECCENTRICITY": 0.0032745, "INCLINATION": 74.0712, "RA_OF_ASC_NODE": 289.1692, "ARG_OF_PERICENTER": 254.3817, "MEAN_ANOMALY": 282.6516, "EPHEMERIS_TYPE": 0, "CLASSIFICATION_TYPE": "U", "NORAD_CAT_ID": 34918, "ELEMENT_SET_NO": 999, "REV_AT_EPOCH": 65523, "BSTAR": 0.0018027, "MEAN_MOTION_DOT": 8.971e-05, "MEAN_MOTION_DDOT": 0}, "tle": {"line1": "1 34918U 93036ADP 25359.55759500  .00008971  00000+0  18027-2 0  9990", "line2": "2 34918  74.0712 289.1692 0032745 254.3817 282.6516 14.61407505655230"}}, "geometry": {"type": "Point", "coordinates": [-75.35485483604, -5.085104997096304]}}, {"type": "Feature", "properties": {"norad_id": 34924, "name": "COSMOS 2251 DEB", "group": "cosmos-2251-debris", "lat": -66.5515995218922, "lon": 20.640990657440415, "alt_km": 730.2239293430757, "timestamp": "2025-12-27T03:58:44.542297+00:00", "meta": {"OBJECT_NAME": "COSMOS 2251 DEB", "OBJECT_ID": "1993-036ADV", "EPOCH": "2025-12-25T15:10:33.634272", "MEAN_MOTION": 14.60138002, "ECCENTRICITY": 0.0053304, "INCLINATION": 74.0404, "RA_OF_ASC_NODE": 64.8485, "ARG_OF_PERICENTER": 146.1764, "MEAN_ANOMALY": 3.5611, "EPHEMERIS_TYPE": 0, "CLASSIFICATION_TYPE": "U", "NORAD_CAT_ID": 34924, "ELEMENT_SET_NO": 999, "REV_AT_EPOCH": 87911, "BSTAR": 0.00084049, "MEAN_MOTION_DOT": 4.099e-05, "MEAN_MOTION_DDOT": 0}, "tle": {"line1": "1 34924U 93036ADV 25359.63233373  .00004099  00000+0  84049-3 0  9996", "line2": "2 34924  74.0404  64.8485 0053304 146.1764   3.5611 14.60138002879119"}}, "geometry": {"type": "Point", "coordinates": [20.640990657440415, -66.5515995218922]}}, {"type": "Feature", "properties": {"norad_id": 34944, "name": "COSMOS 2251 DEB", "group": "cosmos-2251-debris", "lat": 5.599353801692087, "lon": 24.372033268442944, "alt_km": 930.6918837419671, "timestamp": "2025-12-27T03:58:44.542306+00:00", "meta": {"OBJECT_NAME": "COSMOS 2251 DEB", "OBJECT_ID": "1993-036ADX", "EPOCH": "2025-12-26T06:48:20.329632", "MEAN_MOTION": 14.14210823, "ECCENTRICITY": 0.0220097, "INCLINATION": 73.7465, "RA_OF_ASC_NODE": 207.6023, "ARG_OF_PERICENTER": 52.8797, "MEAN_ANOMALY": 309.223, "EPHEMERIS_TYPE": 0, "CLASSIFICATION_TYPE": "U", "NORAD_CAT_ID": 34944, "ELEMENT_SET_NO": 999, "REV_AT_EPOCH": 64274, "BSTAR": 0.0004, "MEAN_MOTION_DOT": 9.36e-06, "MEAN_MOTION_DDOT": 0}, "tle": {"line1": "1 34944U 93036ADX 25360.28356863  .00000936  00000+0  40000-3 0  9996", "line2": "2 34944  73.7465 207.6023 0220097  52.8797 309.2230 14.14210823642744"}}, "geometry": {"type": "Point", "coordinates": [24.372033268442944, 5.599353801692087]}}, {"type": "Feature", "properties": {"norad_id": 34946, "name": "COSMOS 2251 DEB", "group": "cosmos-2251-debris", "lat": -49.9025749768272, "lon": 154.36811684635634, "alt_km": 721.2163066526246, "timestamp": "2025-12-27T03:58:44.542315+00:00", "meta": {"OBJECT_NAME": "COSMOS 2251 DEB", "OBJECT_ID": "1993-036ADZ", "EPOCH": "2025-12-25T14:47:39.171840", "MEAN_MOTION": 14.62063555, "ECCENTRICITY": 0.0048508, "INCLINATION": 74.0243, "RA_OF_ASC_NODE": 317.4443, "ARG_OF_PERICENTER": 90.5194, "MEAN_ANOMALY": 270.1532, "EPHEMERIS_TYPE": 0, "CLASSIFICATION_TYPE": "U", "NORAD_CAT_ID": 34946, "ELEMENT_SET_NO": 999, "REV_AT_EPOCH": 88397, "BSTAR": 0.00064563, "MEAN_MOTION_DOT": 3.267e-05, "MEAN_MOTION_DDOT": 0}, "tle": {"line1": "1 34946U 93036ADZ 25359.61642560  .00003267  00000+0  64563-3 0  9995", "line2": "2 34946  74.0243 317.4443 0048508  90.5194 270.1532 14.62063555883979"}}, "geometry": {"type": "Point", "coordinates": [154.36811684635634, -49.9025749768272]}}, {"type": "Feature", "properties": {"norad_id": 34949, "name": "COSMOS 2251 DEB", "group": "cosmos-2251-debris", "lat": 32.10511517099292, "lon": 91.83417115587564, "alt_km": 701.1225081355105, "timestamp": "2025-12-27T03:58:44.542324+00:00", "meta": {"OBJECT_NAME": "COSMOS 2251 DEB", "OBJECT_ID": "1993-036AEC", "EPOCH": "2025-12-25T22:30:24.026112", "MEAN_MOTION": 14.74089192, "ECCENTRICITY": 0.0079963, "INCLINATION": 74.0186, "RA_OF_ASC_NODE": 83.8736, "ARG_OF_PERICENTER": 226.4237, "MEAN_ANOMALY": 133.028, "EPHEMERIS_TYPE": 0, "CLASSIFICATION_TYPE": "U", "NORAD_CAT_ID": 34949, "ELEMENT_SET_NO": 999, "REV_AT_EPOCH": 88556, "BSTAR": 0.00052427, "MEAN_MOTION_DOT": 3.601e-05, "MEAN_MOTION_DDOT": 0}, "tle": {"line1": "1 34949U 93036AEC 25359.93777808  .00003601  00000+0  52427-3 0  9995", "line2": "2 34949  74.0186  83.8736 0079963 226.4237 133.0280 14.74089192885566"}}, "geometry": {"type": "Point", "coordinates": [91.83417115587564, 32.10511517099292]}}, {"type": "Feature", "properties": {"norad_id": 34953, "name": "COSMOS 2251 DEB", "group": "cosmos-2251-debris", "lat": 65.86253282616735, "lon": 140.13289187701128, "alt_km": 678.1275442476572, "timestamp": "2025-12-27T03:58:44.542333+00:00", "meta": {"OBJECT_NAME": "COSMOS 2251 DEB", "OBJECT_ID": "1993-036AEG", "EPOCH": "2025-12-26T18:28:07.278816", "MEAN_MOTION": 14.69090311, "ECCENTRICITY": 0.0058854, "INCLINATION": 74.0933, "RA_OF_ASC_NODE": 0.4208, "ARG_OF_PERICENTER": 348.5878, "MEAN_ANOMALY": 184.3184, "EPHEMERIS_TYPE": 0, "CLASSIFICATION_TYPE": "U", "NORAD_CAT_ID": 34953, "ELEMENT_SET_NO": 999, "REV_AT_EPOCH": 88334, "BSTAR": 0.0010446, "MEAN_MOTION_DOT": 6.274e-05, "MEAN_MOTION_DDOT": 0}, "tle": {"line1": "1 34953U 93036AEG 25360.76952869  .00006274  00000+0  10446-2 0  9998", "line2": "2 34953  74.0933   0.4208 0058854 348.5878 184.3184 14.69090311883348"}}, "geometry": {"type": "Point", "coordinates": [140.13289187701128, 65.86253282616735]}}, {"type": "Feature", "properties": {"norad_id": 34955, "name": "COSMOS 2251 DEB", "group": "cosmos-2251-debris", "lat": 72.66345591694287, "lon": -76.3417607028325, "alt_km": 607.7560571064942, "timestamp": "2025-12-27T03:58:44.542342+00:00", "meta": {"OBJECT_NAME": "COSMOS 2251 DEB", "OBJECT_ID": "1993-036AEJ", "EPOCH": "2025-12-24T22:48:41.659488", "MEAN_MOTION": 15.00737642, "ECCENTRICITY": 0.00777361, "INCLINATION": 74.035, "RA_OF_ASC_NODE": 221.6616, "ARG_OF_PERICENTER": 288.4914, "MEAN_ANOMALY": 70.7836, "EPHEMERIS_TYPE": 0, "CLASSIFICATION_TYPE": "U", "NORAD_CAT_ID": 34955, "ELEMENT_SET_NO": 999, "REV_AT_EPOCH": 90217, "BSTAR": 0.00061621674, "MEAN_MOTION_DOT": 8.298e-05, "MEAN_MOTION_DDOT": 0}, "tle": {"line1": "1 34955U 93036AEJ 25358.95048217  .00008298  00000+0  61622-3 0  9992", "line2": "2 34955  74.0350 221.6616 0077736 288.4914  70.7836 15.00737642902172"}}, "geometry": {"type": "Point", "coordinates": [-76.3417607028325, 72.66345591694287]}}, {"type": "Feature", "properties": {"norad_id": 34962, "name": "COSMOS 2251 DEB", "group": "cosmos-2251-debris", "lat": -51.98003033045083, "lon": 144.9286233381716, "alt_km": 731.4850237267437, "timestamp": "2025-12-27T03:58:44.542352+00:00", "meta": {"OBJECT_NAME": "COSMOS 2251 DEB", "OBJECT_ID": "1993-036AER", "EPOCH": "2025-12-26T18:16:25.470624", "MEAN_MOTION": 14.4656012, "ECCENTRICITY": 0.0018934, "INCLINATION": 74.0287, "RA_OF_ASC_NODE": 167.1714, "ARG_OF_PERICENTER": 278.9591, "MEAN_ANOMALY": 80.9424, "EPHEMERIS_TYPE": 0, "CLASSIFICATION_TYPE": "U", "NORAD_CAT_ID": 34962, "ELEMENT_SET_NO": 999, "REV_AT_EPOCH": 87781, "BSTAR": 0.0005003, "MEAN_MOTION_DOT": 1.78e-05, "MEAN_MOTION_DDOT": 0}, "tle": {"line1": "1 34962U 93036AER 25360.76140591  .00001780  00000+0  50030-3 0  9990", "line2": "2 34962  74.0287 167.1714 0018934 278.9591  80.9424 14.46560120877814"}}, "geometry": {"type": "Point", "coordinates": [144.9286233381716, -51.98003033045083]}}]}